[{"OBJECT_NAME":"TIANHUI 4A","OBJECT_ID":"2021-134A","EPOCH":"2026-03-09T23:41:19.127616","MEAN_MOTION":15.45144231,"ECCENTRICITY":0.0011811,"INCLINATION":88.9797,"RA_OF_ASC_NODE":336.8124,"ARG_OF_PERICENTER":97.7034,"MEAN_ANOMALY":262.5567,"EPHEMERIS_TYPE":0,"CLASSIFICATION_TYPE":"U","NORAD_CAT_ID":50572,"ELEMENT_SET_NO":999,"REV_AT_EPOCH":23454,"BSTAR":0.00022158295,"MEAN_MOTION_DOT":0.0001055,"MEAN_MOTION_DDOT":0},{"OBJECT_NAME":"BRO-6","OBJECT_ID":"2022-047AE","EPOCH":"2026-03-09T22:39:29.581632","MEAN_MOTION":15.44429794,"ECCENTRICITY":0.00055745,"INCLINATION":97.3417,"RA_OF_ASC_NODE":158.5545,"ARG_OF_PERICENTER":78.0361,"MEAN_ANOMALY":282.1512,"EPHEMERIS_TYPE":0,"CLASSIFICATION_TYPE":"U","NORAD_CAT_ID":52422,"ELEMENT_SET_NO":999,"REV_AT_EPOCH":21580,"BSTAR":0.00044779472,"MEAN_MOTION_DOT":0.00020658,"MEAN_MOTION_DDOT":0}]
